{
    "links": {
        "self": "http://www.neowsapp.com/rest/v1/neo/3973545?api_key=iIulBulltgU6a56xZRHN4H3l9WmuAYTsLGpBGhQ2"
    },
    "id": "3973545",
    "neo_reference_id": "3973545",
    "name": "(2020 AF1)",
    "designation": "2020 AF1",
    "nasa_jpl_url": "http://ssd.jpl.nasa.gov/sbdb.cgi?sstr=3973545",
    "absolute_magnitude_h": 24.8,
    "estimated_diameter": {
        "kilometers": {
            "estimated_diameter_min": 0.0291443905,
            "estimated_diameter_max": 0.0651688382
        },
        "meters": {
            "estimated_diameter_min": 29.1443904535,
            "estimated_diameter_max": 65.1688382168
        },
        "miles": {
            "estimated_diameter_min": 0.018109479,
            "estimated_diameter_max": 0.0404940262
        },
        "feet": {
            "estimated_diameter_min": 95.6180819754,
            "estimated_diameter_max": 213.8085311752
        }
    },
    "is_potentially_hazardous_asteroid": false,
    "close_approach_data": [
        {
            "close_approach_date": "2019-12-25",
            "close_approach_date_full": "2019-Dec-25 10:02",
            "epoch_date_close_approach": 1577268120000,
            "relative_velocity": {
                "kilometers_per_second": "8.2399748864",
                "kilometers_per_hour": "29663.9095909431",
                "miles_per_hour": "18431.999823328"
            },
            "miss_distance": {
                "astronomical": "0.1073719861",
                "lunar": "41.7677025929",
                "kilometers": "16062620.418229607",
                "miles": "9980849.5097462966"
            },
            "orbiting_body": "Earth"
        },
        {
            "close_approach_date": "2028-12-14",
            "close_approach_date_full": "2028-Dec-14 00:14",
            "epoch_date_close_approach": 1860365640000,
            "relative_velocity": {
                "kilometers_per_second": "15.0606092134",
                "kilometers_per_hour": "54218.1931683664",
                "miles_per_hour": "33689.076749533"
            },
            "miss_distance": {
                "astronomical": "0.4544172174",
                "lunar": "176.7682975686",
                "kilometers": "67979847.814366938",
                "miles": "42240718.7036942244"
            },
            "orbiting_body": "Earth"
        }
    ],
    "orbital_data": {
        "orbit_id": "2",
        "orbit_determination_date": "2020-01-06 05:40:10",
        "first_observation_date": "2020-01-03",
        "last_observation_date": "2020-01-06",
        "data_arc_in_days": 3,
        "observations_used": 23,
        "orbit_uncertainty": "8",
        "minimum_orbit_intersection": ".105391",
        "jupiter_tisserand_invariant": "5.291",
        "epoch_osculation": "2458852.5",
        "eccentricity": ".1080579556382698",
        "semi_major_axis": "1.189172144266602",
        "inclination": "15.51716345296193",
        "ascending_node_longitude": "97.55640437060362",
        "orbital_period": "473.6586994344349",
        "perihelion_distance": "1.060672633455175",
        "perihelion_argument": "314.3552610128087",
        "aphelion_distance": "1.317671655078028",
        "perihelion_time": "2458797.944576817411",
        "mean_anomaly": "41.4643547541359",
        "mean_motion": ".7600409333341763",
        "equinox": "J2000",
        "orbit_class": {
            "orbit_class_type": "AMO",
            "orbit_class_description": "Near-Earth asteroid orbits similar to that of 1221 Amor",
            "orbit_class_range": "1.017 AU < q (perihelion) < 1.3 AU"
        }
    },
    "is_sentry_object": false
}